NORAD_CAT_ID,OBJECT_NAME,OBJECT_TYPE,EPOCH,MEAN_MOTION,ECCENTRICITY,INCLINATION,RA_OF_ASC_NODE,ARG_OF_PERICENTER,MEAN_ANOMALY,BSTAR,MEAN_MOTION_DOT,MEAN_MOTION_DDOT,TLE_LINE0,TLE_LINE1,TLE_LINE2,SEMIMAJOR_AXIS,PERIOD,APOGEE,PERIGEE,DECAYED
53176.0,STARLINK-4294,PAYLOAD,2023-02-07 02:10:36,15.08848294,0.0001517,53.2191,166.6179,106.358,253.7579,3.4427e-06,-2.33e-06,0.0,0 STARLINK-4294,1 53176U 22083AW  23038.09069696 -.00000233  00000-0  34427-5 0  9992,2 53176  53.2191 166.6179 0001517 106.3580 253.7579 15.08848294 32123,6917.855,95.437,540.769,538.671,0.0
53176.0,STARLINK-4294,PAYLOAD,2023-02-07 13:18:18,15.0884526,0.0001358,53.2169,164.5395,97.7177,262.3969,0.00013058,1.791e-05,0.0,0 STARLINK-4294,1 53176U 22083AW  23038.55437619  .00001791  00000-0  13058-3 0  9991,2 53176  53.2169 164.5395 0001358  97.7177 262.3969 15.08845260 31558,6917.864,95.437,540.669,538.79,0.0
53176.0,STARLINK-4294,PAYLOAD,2023-02-07 14:53:40,15.08851642,0.0001374,53.2176,164.2419,96.8031,263.3118,0.00012816,1.753e-05,0.0,0 STARLINK-4294,1 53176U 22083AW  23038.62061245  .00001753  00000-0  12816-3 0  9996,2 53176  53.2176 164.2419 0001374  96.8031 263.3118 15.08851642 31566,6917.845,95.437,540.66,538.759,0.0
53176.0,STARLINK-4294,PAYLOAD,2023-02-08 11:33:42,15.08833753,0.0001715,53.2184,160.3749,111.9899,248.1276,-7.059e-05,-1.411e-05,0.0,0 STARLINK-4294,1 53176U 22083AW  23039.48174581 -.00001411  00000-0 -70590-4 0  9996,2 53176  53.2184 160.3749 0001715 111.9899 248.1276 15.08833753 32333,6917.899,95.438,540.951,538.578,0.0
53176.0,STARLINK-4294,PAYLOAD,2023-02-08 13:09:06,15.08836919,0.0001504,53.2185,160.0755,112.7598,247.3553,-2.359e-05,-6.63e-06,0.0,0 STARLINK-4294,1 53176U 22083AW  23039.54798734 -.00000663  00000-0 -23590-4 0  9991,2 53176  53.2185 160.0755 0001504 112.7598 247.3553 15.08836919 31705,6917.89,95.438,540.795,538.714,0.0
53176.0,STARLINK-4294,PAYLOAD,2023-02-09 11:24:29,15.08842636,0.0001121,53.2174,155.9178,87.2203,272.8917,0.00014129,1.962e-05,0.0,0 STARLINK-4294,1 53176U 22083AW  23040.47534538  .00001962  00000-0  14129-3 0  9993,2 53176  53.2174 155.9178 0001121  87.2203 272.8917 15.08842636 31844,6917.872,95.437,540.513,538.962,0.0
53176.0,STARLINK-4294,PAYLOAD,2023-02-09 14:35:15,15.0885221,0.0001242,53.2183,155.3231,95.0639,265.0495,0.00023717,3.49e-05,0.0,0 STARLINK-4294,1 53176U 22083AW  23040.60782077  .00003490  00000-0  23717-3 0  9992,2 53176  53.2183 155.3231 0001242  95.0639 265.0495 15.08852210 32500,6917.843,95.437,540.567,538.849,0.0
53176.0,STARLINK-4294,PAYLOAD,2023-02-10 00:07:34,15.08840127,0.0001271,53.2188,153.5361,85.895,274.2187,0.00015519,2.183e-05,0.0,0 STARLINK-4294,1 53176U 22083AW  23041.00526574  .00002183  00000-0  15519-3 0  9994,2 53176  53.2188 153.5361 0001271  85.8950 274.2187 15.08840127 32564,6917.88,95.438,540.624,538.866,0.0
53176.0,STARLINK-4294,PAYLOAD,2023-02-10 11:15:17,15.08836006,0.0001427,53.2195,151.4601,109.3487,250.766,8.8341e-05,1.118e-05,0.0,0 STARLINK-4294,1 53176U 22083AW  23041.46895071  .00001118  00000-0  88341-4 0  9996,2 53176  53.2195 151.4601 0001427 109.3487 250.7660 15.08836006 32630,6917.893,95.438,540.745,538.77,0.0
53176.0,STARLINK-4294,PAYLOAD,2023-02-10 14:26:03,15.08845759,0.0001094,53.2178,150.8628,99.5479,260.5637,0.00028561,4.261e-05,0.0,0 STARLINK-4294,1 53176U 22083AW  23041.60142693  .00004261  00000-0  28561-3 0  9996,2 53176  53.2178 150.8628 0001094  99.5479 260.5637 15.08845759 32654,6917.863,95.437,540.485,538.971,0.0
53176.0,STARLINK-4294,PAYLOAD,2023-02-10 23:58:21,15.08848914,0.0001007,53.2175,149.0777,83.4518,276.6588,0.000245,3.614e-05,0.0,0 STARLINK-4294,1 53176U 22083AW  23041.99886441  .00003614  00000-0  24500-3 0  9994,2 53176  53.2175 149.0777 0001007  83.4518 276.6588 15.08848914 32071,6917.853,95.437,540.415,539.022,0.0
53176.0,STARLINK-4294,PAYLOAD,2023-02-11 11:06:04,15.0883346,0.0002295,53.2182,146.998,92.0602,268.0653,-6.2979e-05,-1.29e-05,0.0,0 STARLINK-4294,1 53176U 22083AW  23042.46255422 -.00001290  00000-0 -62979-4 0  9999,2 53176  53.2182 146.9980 0002295  92.0602 268.0653 15.08833460 32147,6917.9,95.438,541.353,538.178,0.0
53176.0,STARLINK-4294,PAYLOAD,2023-02-12 06:10:42,15.08822259,0.0001023,53.2156,143.427,102.0837,258.0269,0.00014701,2.052e-05,0.0,0 STARLINK-4294,1 53176U 22083AW  23043.25744147  .00002052  00000-0  14701-3 0  9998,2 53176  53.2156 143.4270 0001023 102.0837 258.0269 15.08822259 32902,6917.935,95.439,540.507,539.092,0.0
53176.0,STARLINK-4294,PAYLOAD,2023-02-12 09:21:29,15.08828378,0.0001169,53.2163,142.8338,104.5235,255.5886,0.00013986,1.938e-05,0.0,0 STARLINK-4294,1 53176U 22083AW  23043.38991975  .00001938  00000-0  13986-3 0  9991,2 53176  53.2163 142.8338 0001169 104.5235 255.5886 15.08828378 32284,6917.916,95.438,540.59,538.972,0.0
53176.0,STARLINK-4294,PAYLOAD,2023-02-13 02:50:43,15.08832472,0.0001415,53.2162,139.5624,85.5722,274.5431,0.00017725,2.534e-05,0.0,0 STARLINK-4294,1 53176U 22083AW  23044.11855960  .00002534  00000-0  17725-3 0  9994,2 53176  53.2162 139.5624 0001415  85.5722 274.5431 15.08832472 33038,6917.903,95.438,540.747,538.79,0.0
53176.0,STARLINK-4294,PAYLOAD,2023-02-13 12:23:02,15.08838099,0.0001275,53.218,137.7766,98.4273,261.6864,0.00021026,3.06e-05,0.0,0 STARLINK-4294,1 53176U 22083AW  23044.51599545  .00003060  00000-0  21026-3 0  9996,2 53176  53.2180 137.7766 0001275  98.4273 261.6864 15.08838099 32456,6917.886,95.438,540.633,538.869,0.0
53176.0,STARLINK-4294,PAYLOAD,2023-02-14 12:13:49,15.08839467,0.0001299,53.2175,133.3175,107.9201,252.1933,0.0001817,2.605e-05,0.0,0 STARLINK-4294,1 53176U 22083AW  23045.50959718  .00002605  00000-0  18170-3 0  9998,2 53176  53.2175 133.3175 0001299 107.9201 252.1933 15.08839467 33249,6917.882,95.438,540.646,538.848,0.0
53176.0,STARLINK-4294,PAYLOAD,2023-02-15 12:04:35,15.08853555,0.0001213,53.2166,128.8573,83.2689,276.8441,0.00031442,4.721e-05,0.0,0 STARLINK-4294,1 53176U 22083AW  23046.50319009  .00004721  00000-0  31442-3 0  9990,2 53176  53.2166 128.8573 0001213  83.2689 276.8441 15.08853555 33399,6917.839,95.437,540.543,538.865,0.0
53176.0,STARLINK-4294,PAYLOAD,2023-02-15 15:15:21,15.08861333,0.0001184,53.2174,128.2611,87.7521,272.3607,0.00035682,5.399e-05,0.0,0 STARLINK-4294,1 53176U 22083AW  23046.63566489  .00005399  00000-0  35682-3 0  9992,2 53176  53.2174 128.2611 0001184  87.7521 272.3607 15.08861333 32775,6917.815,95.436,540.499,538.861,0.0
53176.0,STARLINK-4294,PAYLOAD,2023-02-16 02:23:05,15.08820816,9.96e-05,53.2172,126.1818,77.5876,282.5227,-6.9709e-05,-1.396e-05,0.0,0 STARLINK-4294,1 53176U 22083AW  23047.09936615 -.00001396  00000-0 -69709-4 0  9998,2 53176  53.2172 126.1818 0000996  77.5876 282.5227 15.08820816 33480,6917.939,95.439,540.493,539.115,0.0
53176.0,STARLINK-4294,PAYLOAD,2023-02-16 11:55:23,15.08837353,0.0001147,53.2166,124.3979,89.0976,271.0148,0.00014276,1.985e-05,0.0,0 STARLINK-4294,1 53176U 22083AW  23047.49680011  .00001985  00000-0  14276-3 0  9998,2 53176  53.2166 124.3979 0001147  89.0976 271.0148 15.08837353 33545,6917.888,95.438,540.547,538.96,0.0
53176.0,STARLINK-4294,PAYLOAD,2023-02-16 15:06:09,15.08849759,0.0001076,53.217,123.8026,98.729,261.3824,0.0002302,3.379e-05,0.0,0 STARLINK-4294,1 53176U 22083AW  23047.62927308  .00003379  00000-0  23020-3 0  9992,2 53176  53.2170 123.8026 0001076  98.7290 261.3824 15.08849759 33562,6917.851,95.437,540.46,538.971,0.0
53176.0,STARLINK-4294,PAYLOAD,2023-02-17 05:24:38,15.08835223,0.0001513,53.2164,121.1251,112.4244,247.6909,2.593e-05,1.25e-06,0.0,0 STARLINK-4294,1 53176U 22083AW  23048.22544166  .00000125  00000-0  25930-4 0  9995,2 53176  53.2164 121.1251 0001513 112.4244 247.6909 15.08835223 33657,6917.895,95.438,540.807,538.713,0.0
53176.0,STARLINK-4294,PAYLOAD,2023-02-17 11:46:10,15.08847489,0.0001196,53.2169,119.9373,95.4863,264.6266,0.00029194,4.362e-05,0.0,0 STARLINK-4294,1 53176U 22083AW  23048.49039749  .00004362  00000-0  29194-3 0  9992,2 53176  53.2169 119.9373 0001196  95.4863 264.6266 15.08847489 33692,6917.857,95.437,540.55,538.895,0.0
53176.0,STARLINK-4294,PAYLOAD,2023-02-17 21:18:29,15.08842034,0.0001052,53.2178,118.153,94.2111,265.9001,0.00013068,1.793e-05,0.0,0 STARLINK-4294,1 53176U 22083AW  23048.88783838  .00001793  00000-0  13068-3 0  9998,2 53176  53.2178 118.1530 0001052  94.2111 265.9001 15.08842034 33111,6917.874,95.437,540.467,539.011,0.0
53176.0,STARLINK-4294,PAYLOAD,2023-02-18 02:04:39,15.0881738,0.0001084,53.2174,117.2608,88.2184,271.8932,-0.0002022,-3.502e-05,0.0,0 STARLINK-4294,1 53176U 22083AW  23049.08657026 -.00003502  00000-0 -20220-3 0  9990,2 53176  53.2174 117.2608 0001084  88.2184 271.8932 15.08817380 33789,6917.95,95.439,540.564,539.065,0.0
53176.0,STARLINK-4294,PAYLOAD,2023-02-18 11:36:58,15.08829338,0.0001148,53.2167,115.4778,92.6942,267.4182,3.2672e-05,2.32e-06,0.0,0 STARLINK-4294,1 53176U 22083AW  23049.48400977  .00000232  00000-0  32672-4 0  9995,2 53176  53.2167 115.4778 0001148  92.6942 267.4182 15.08829338 33842,6917.913,95.438,540.572,538.984,0.0
53176.0,STARLINK-4294,PAYLOAD,2023-02-19 01:55:26,15.08844929,0.0001289,53.2163,112.8011,89.8924,270.2215,0.00038159,5.791e-05,0.0,0 STARLINK-4294,1 53176U 22083AW  23050.08016751  .00005791  00000-0  38159-3 0  9996,2 53176  53.2163 112.8011 0001289  89.8924 270.2215 15.08844929 33935,6917.865,95.437,540.622,538.839,0.0
53176.0,STARLINK-4294,PAYLOAD,2023-02-19 11:27:45,15.08869394,0.0001324,53.216,111.0173,83.9135,276.2008,0.0015113,0.00023866,0.0,0 STARLINK-4294,1 53176U 22083AW  23050.47760435  .00023866  00000-0  15113-2 0  9991,2 53176  53.2160 111.0173 0001324  83.9135 276.2008 15.08869394 33996,6917.791,95.436,540.571,538.74,0.0
53176.0,STARLINK-4294,PAYLOAD,2023-02-20 04:56:59,15.08850448,0.0001298,53.2152,107.7459,90.4082,269.7059,0.00021099,3.073e-05,0.0,0 STARLINK-4294,1 53176U 22083AW  23051.20624210  .00003073  00000-0  21099-3 0  9992,2 53176  53.2152 107.7459 0001298  90.4082 269.7059 15.08850448 34107,6917.848,95.437,540.611,538.816,0.0
